STARLINK-30480          
1 58069U 23158U   26068.50969982  .00008629  00000+0  32270-3 0  9998
2 58069  42.9995 245.8442 0003556 286.2390  73.8070 15.27582544135216
STARLINK-31630          
1 59271U 24050T   26068.56880718 -.00002063  00000+0 -57526-4 0  9991
2 59271  53.1600 168.5079 0001409  92.3163 267.7999 15.30200807110710
